{
    "links": {
        "self": "http://www.neowsapp.com/rest/v1/neo/3566629?api_key=iIulBulltgU6a56xZRHN4H3l9WmuAYTsLGpBGhQ2"
    },
    "id": "3566629",
    "neo_reference_id": "3566629",
    "name": "(2011 KJ15)",
    "designation": "2011 KJ15",
    "nasa_jpl_url": "http://ssd.jpl.nasa.gov/sbdb.cgi?sstr=3566629",
    "absolute_magnitude_h": 23.1,
    "estimated_diameter": {
        "kilometers": {
            "estimated_diameter_min": 0.063760979,
            "estimated_diameter_max": 0.1425738833
        },
        "meters": {
            "estimated_diameter_min": 63.7609789875,
            "estimated_diameter_max": 142.5738833281
        },
        "miles": {
            "estimated_diameter_min": 0.0396192233,
            "estimated_diameter_max": 0.0885912765
        },
        "feet": {
            "estimated_diameter_min": 209.1895703015,
            "estimated_diameter_max": 467.7620993781
        }
    },
    "is_potentially_hazardous_asteroid": false,
    "close_approach_data": [
        {
            "close_approach_date": "2011-06-09",
            "close_approach_date_full": "2011-Jun-09 15:14",
            "epoch_date_close_approach": 1307632440000,
            "relative_velocity": {
                "kilometers_per_second": "22.6735125949",
                "kilometers_per_hour": "81624.6453415867",
                "miles_per_hour": "50718.3803234987"
            },
            "miss_distance": {
                "astronomical": "0.0547163012",
                "lunar": "21.2846411668",
                "kilometers": "8185442.113798444",
                "miles": "5086197.8793847672"
            },
            "orbiting_body": "Earth"
        }
    ],
    "orbital_data": {
        "orbit_id": "11",
        "orbit_determination_date": "2017-04-06 08:53:25",
        "first_observation_date": "2011-05-27",
        "last_observation_date": "2011-06-08",
        "data_arc_in_days": 12,
        "observations_used": 56,
        "orbit_uncertainty": "8",
        "minimum_orbit_intersection": ".0219035",
        "jupiter_tisserand_invariant": "3.538",
        "epoch_osculation": "2455712.5",
        "eccentricity": ".732077836805795",
        "semi_major_axis": "1.906492000094072",
        "inclination": "11.34841519733438",
        "ascending_node_longitude": "86.80466973938297",
        "orbital_period": "961.5035847568751",
        "perihelion_distance": ".5107914607776503",
        "perihelion_argument": "268.6923277423435",
        "aphelion_distance": "3.302192539410493",
        "perihelion_time": "2455769.755738281866",
        "mean_anomaly": "338.5626740157358",
        "mean_motion": ".3744135806743032",
        "equinox": "J2000",
        "orbit_class": {
            "orbit_class_type": "APO",
            "orbit_class_description": "Near-Earth asteroid orbits which cross the Earth’s orbit similar to that of 1862 Apollo",
            "orbit_class_range": "a (semi-major axis) > 1.0 AU; q (perihelion) < 1.017 AU"
        }
    },
    "is_sentry_object": false
}